start=new Date('2022-09-02T00:00:00.000Z').valueOf();
sats=[{"RCS_SIZE":"LARGE","ECCENTRICITY":"0.00014760","BSTAR":"0.00214070000000","CLASSIFICATION_TYPE":"U","ELEMENT_SET_NO":"999","OBJECT_ID":"2022-052U","MEAN_MOTION_DOT":"0.00033933","PERIAPSIS":"538.767","MEAN_ELEMENT_THEORY":"SGP4","FILE":"3554009","TLE_LINE1":"1 52616U 22052U   22244.91667824  .00033933  00000-0  21407-2 0  9995","ARG_OF_PERICENTER":"53.6134","SITE":"AFETR","REV_AT_EPOCH":"130","DECAY_DATE":null,"OBJECT_NAME":"STARLINK-4015","MEAN_ANOMALY":"71.1489","MEAN_MOTION":"15.08825948","SEMIMAJOR_AXIS":"6917.923","NORAD_CAT_ID":"52616","INCLINATION":"53.2148","EPOCH":"2022-09-01T22:00:00.999936","APOAPSIS":"540.809","CENTER_NAME":"EARTH","EPHEMERIS_TYPE":"0","PERIOD":"95.438","GP_ID":"211506153","LAUNCH_DATE":"2022-05-14","TIME_SYSTEM":"UTC","OBJECT_TYPE":"PAYLOAD","TLE_LINE2":"2 52616  53.2148 276.6917 0001476  53.6134  71.1489 15.08825948  1307","MEAN_MOTION_DDOT":"0.0000000000000","RA_OF_ASC_NODE":"276.6917","REF_FRAME":"TEME","COUNTRY_CODE":"US"},{"APOAPSIS":"545.745","EPOCH":"2022-09-01T22:00:00.999936","INCLINATION":"53.2136","PERIOD":"95.543","CENTER_NAME":"EARTH","EPHEMERIS_TYPE":"0","MEAN_ANOMALY":"306.1418","MEAN_MOTION":"15.07179595","NORAD_CAT_ID":"52617","SEMIMAJOR_AXIS":"6922.960","MEAN_MOTION_DDOT":"0.0000000000000","TLE_LINE2":"2 52617  53.2136 276.2956 0001329  60.4913 306.1418 15.07179595  1304","RA_OF_ASC_NODE":"276.2956","REF_FRAME":"TEME","COUNTRY_CODE":"US","LAUNCH_DATE":"2022-05-14","TIME_SYSTEM":"UTC","GP_ID":"211506011","OBJECT_TYPE":"PAYLOAD","ELEMENT_SET_NO":"999","RCS_SIZE":"LARGE","CLASSIFICATION_TYPE":"U","ECCENTRICITY":"0.00013290","BSTAR":"0.00175820000000","DECAY_DATE":null,"ARG_OF_PERICENTER":"60.4913","TLE_LINE1":"1 52617U 22052V   22244.91667824  .00026562  00000-0  17582-2 0  9995","SITE":"AFETR","REV_AT_EPOCH":"130","OBJECT_NAME":"STARLINK-3996","PERIAPSIS":"543.905","MEAN_ELEMENT_THEORY":"SGP4","FILE":"3554009","MEAN_MOTION_DOT":"0.00026562","OBJECT_ID":"2022-052V"},{"ELEMENT_SET_NO":"999","RCS_SIZE":"LARGE","CLASSIFICATION_TYPE":"U","BSTAR":"0.00203950000000","ECCENTRICITY":"0.00013780","DECAY_DATE":null,"TLE_LINE1":"1 52618U 22052W   22244.91667824  .00032307  00000-0  20395-2 0  9996","ARG_OF_PERICENTER":"66.8740","REV_AT_EPOCH":"130","SITE":"AFETR","OBJECT_NAME":"STARLINK-3983","PERIAPSIS":"538.837","FILE":"3554009","MEAN_ELEMENT_THEORY":"SGP4","OBJECT_ID":"2022-052W","MEAN_MOTION_DOT":"0.00032307","APOAPSIS":"540.744","EPOCH":"2022-09-01T22:00:00.999936","INCLINATION":"53.2157","PERIOD":"95.438","CENTER_NAME":"EARTH","EPHEMERIS_TYPE":"0","MEAN_ANOMALY":"77.9780","MEAN_MOTION":"15.08825166","NORAD_CAT_ID":"52618","SEMIMAJOR_AXIS":"6917.926","MEAN_MOTION_DDOT":"0.0000000000000","TLE_LINE2":"2 52618  53.2157 276.6952 0001378  66.8740  77.9780 15.08825166  1308","RA_OF_ASC_NODE":"276.6952","REF_FRAME":"TEME","COUNTRY_CODE":"US","LAUNCH_DATE":"2022-05-14","TIME_SYSTEM":"UTC","GP_ID":"211506711","OBJECT_TYPE":"PAYLOAD"},{"ELEMENT_SET_NO":"999","RCS_SIZE":"LARGE","ECCENTRICITY":"0.00016150","BSTAR":"0.00145620000000","CLASSIFICATION_TYPE":"U","SITE":"AFETR","REV_AT_EPOCH":"130","ARG_OF_PERICENTER":"55.9898","TLE_LINE1":"1 52619U 22052X   22244.91667824  .00022946  00000-0  14562-2 0  9994","DECAY_DATE":null,"OBJECT_NAME":"STARLINK-3741","OBJECT_ID":"2022-052X","MEAN_MOTION_DOT":"0.00022946","MEAN_ELEMENT_THEORY":"SGP4","FILE":"3554009","PERIAPSIS":"538.714","INCLINATION":"53.2154","EPOCH":"2022-09-01T22:00:00.999936","APOAPSIS":"540.948","EPHEMERIS_TYPE":"0","CENTER_NAME":"EARTH","PERIOD":"95.439","MEAN_MOTION":"15.08811993","MEAN_ANOMALY":"123.6927","SEMIMAJOR_AXIS":"6917.966","NORAD_CAT_ID":"52619","TLE_LINE2":"2 52619  53.2154 276.6934 0001615  55.9898 123.6927 15.08811993  1308","MEAN_MOTION_DDOT":"0.0000000000000","COUNTRY_CODE":"US","RA_OF_ASC_NODE":"276.6934","REF_FRAME":"TEME","GP_ID":"211506282","TIME_SYSTEM":"UTC","LAUNCH_DATE":"2022-05-14","OBJECT_TYPE":"PAYLOAD"},{"ECCENTRICITY":"0.00015360","BSTAR":"0.00102430000000","CLASSIFICATION_TYPE":"U","RCS_SIZE":"LARGE","ELEMENT_SET_NO":"999","OBJECT_ID":"2022-052Y","MEAN_MOTION_DOT":"0.00016048","PERIAPSIS":"538.703","FILE":"3554009","MEAN_ELEMENT_THEORY":"SGP4","OBJECT_NAME":"STARLINK-3975","TLE_LINE1":"1 52620U 22052Y   22244.91667824  .00016048  00000-0  10243-2 0  9994","ARG_OF_PERICENTER":"55.5491","REV_AT_EPOCH":"130","SITE":"AFETR","DECAY_DATE":null,"SEMIMAJOR_AXIS":"6917.901","NORAD_CAT_ID":"52620","MEAN_ANOMALY":"146.7830","MEAN_MOTION":"15.08833359","CENTER_NAME":"EARTH","EPHEMERIS_TYPE":"0","PERIOD":"95.438","EPOCH":"2022-09-01T22:00:00.999936","INCLINATION":"53.2159","APOAPSIS":"540.828","OBJECT_TYPE":"PAYLOAD","GP_ID":"211506568","LAUNCH_DATE":"2022-05-14","TIME_SYSTEM":"UTC","RA_OF_ASC_NODE":"291.6879","REF_FRAME":"TEME","COUNTRY_CODE":"US","TLE_LINE2":"2 52620  53.2159 291.6879 0001536  55.5491 146.7830 15.08833359  1306","MEAN_MOTION_DDOT":"0.0000000000000"},{"MEAN_MOTION":"15.08808292","MEAN_ANOMALY":"173.3622","NORAD_CAT_ID":"52621","SEMIMAJOR_AXIS":"6917.977","APOAPSIS":"540.895","EPOCH":"2022-09-01T22:00:00.999936","INCLINATION":"53.2155","PERIOD":"95.440","EPHEMERIS_TYPE":"0","CENTER_NAME":"EARTH","TIME_SYSTEM":"UTC","LAUNCH_DATE":"2022-05-14","GP_ID":"211506425","OBJECT_TYPE":"PAYLOAD","MEAN_MOTION_DDOT":"0.0000000000000","TLE_LINE2":"2 52621  53.2155 276.6967 0001521  51.4068 173.3622 15.08808292  1306","COUNTRY_CODE":"US","RA_OF_ASC_NODE":"276.6967","REF_FRAME":"TEME","RCS_SIZE":"LARGE","CLASSIFICATION_TYPE":"U","BSTAR":"0.00215100000000","ECCENTRICITY":"0.00015210","ELEMENT_SET_NO":"999","MEAN_ELEMENT_THEORY":"SGP4","FILE":"3554009","PERIAPSIS":"538.790","OBJECT_ID":"2022-052Z","MEAN_MOTION_DOT":"0.00034081","DECAY_DATE":null,"SITE":"AFETR","REV_AT_EPOCH":"130","TLE_LINE1":"1 52621U 22052Z   22244.91667824  .00034081  00000-0  21510-2 0  9991","ARG_OF_PERICENTER":"51.4068","OBJECT_NAME":"STARLINK-3984"},{"OBJECT_NAME":"STARLINK-4008","DECAY_DATE":null,"TLE_LINE1":"1 52622U 22052AA  22244.91667824  .00017203  00000-0  10964-2 0  9990","ARG_OF_PERICENTER":"79.9645","SITE":"AFETR","REV_AT_EPOCH":"130","PERIAPSIS":"538.865","FILE":"3554009","MEAN_ELEMENT_THEORY":"SGP4","MEAN_MOTION_DOT":"0.00017203","OBJECT_ID":"2022-052AA","ELEMENT_SET_NO":"999","CLASSIFICATION_TYPE":"U","ECCENTRICITY":"0.00012860","BSTAR":"0.00109640000000","RCS_SIZE":"LARGE","RA_OF_ASC_NODE":"291.6839","REF_FRAME":"TEME","COUNTRY_CODE":"US","MEAN_MOTION_DDOT":"0.0000000000000","TLE_LINE2":"2 52622  53.2170 291.6839 0001286  79.9645 322.3912 15.08836816  1304","OBJECT_TYPE":"PAYLOAD","LAUNCH_DATE":"2022-05-14","TIME_SYSTEM":"UTC","GP_ID":"211506868","PERIOD":"95.438","CENTER_NAME":"EARTH","EPHEMERIS_TYPE":"0","APOAPSIS":"540.645","EPOCH":"2022-09-01T22:00:00.999936","INCLINATION":"53.2170","NORAD_CAT_ID":"52622","SEMIMAJOR_AXIS":"6917.890","MEAN_ANOMALY":"322.3912","MEAN_MOTION":"15.08836816"},{"RCS_SIZE":"LARGE","CLASSIFICATION_TYPE":"U","BSTAR":"0.00217020000000","ECCENTRICITY":"0.00016930","ELEMENT_SET_NO":"999","PERIAPSIS":"538.668","MEAN_ELEMENT_THEORY":"SGP4","FILE":"3554009","MEAN_MOTION_DOT":"0.00034391","OBJECT_ID":"2022-052AB","DECAY_DATE":null,"ARG_OF_PERICENTER":"49.1700","TLE_LINE1":"1 52623U 22052AB  22244.91667824  .00034391  00000-0  21702-2 0  9990","SITE":"AFETR","REV_AT_EPOCH":"130","OBJECT_NAME":"STARLINK-3986","MEAN_ANOMALY":"195.5856","MEAN_MOTION":"15.08809398","NORAD_CAT_ID":"52623","SEMIMAJOR_AXIS":"6917.974","APOAPSIS":"541.010","INCLINATION":"53.2156","EPOCH":"2022-09-01T22:00:00.999936","PERIOD":"95.439","CENTER_NAME":"EARTH","EPHEMERIS_TYPE":"0","LAUNCH_DATE":"2022-05-14","TIME_SYSTEM":"UTC","GP_ID":"211505869","OBJECT_TYPE":"PAYLOAD","MEAN_MOTION_DDOT":"0.0000000000000","TLE_LINE2":"2 52623  53.2156 276.6962 0001693  49.1700 195.5856 15.08809398  1304","RA_OF_ASC_NODE":"276.6962","REF_FRAME":"TEME","COUNTRY_CODE":"US"},{"APOAPSIS":"540.754","EPOCH":"2022-09-01T22:00:00.999936","INCLINATION":"53.2157","PERIOD":"95.438","CENTER_NAME":"EARTH","EPHEMERIS_TYPE":"0","MEAN_ANOMALY":"126.6937","MEAN_MOTION":"15.08828052","NORAD_CAT_ID":"52624","SEMIMAJOR_AXIS":"6917.917","MEAN_MOTION_DDOT":"0.0000000000000","TLE_LINE2":"2 52624  53.2157 276.6942 0001405  58.1635 126.6937 15.08828052  1305","RA_OF_ASC_NODE":"276.6942","REF_FRAME":"TEME","COUNTRY_CODE":"US","LAUNCH_DATE":"2022-05-14","TIME_SYSTEM":"UTC","GP_ID":"211506154","OBJECT_TYPE":"PAYLOAD","ELEMENT_SET_NO":"999","RCS_SIZE":"LARGE","CLASSIFICATION_TYPE":"U","ECCENTRICITY":"0.00014050","BSTAR":"0.00000846480000","DECAY_DATE":null,"ARG_OF_PERICENTER":"58.1635","TLE_LINE1":"1 52624U 22052AC  22244.91667824 -.00000153  00000-0  84648-5 0  9992","REV_AT_EPOCH":"130","SITE":"AFETR","OBJECT_NAME":"STARLINK-4009","PERIAPSIS":"538.810","MEAN_ELEMENT_THEORY":"SGP4","FILE":"3554009","OBJECT_ID":"2022-052AC","MEAN_MOTION_DOT":"-0.00000153"},{"MEAN_MOTION_DDOT":"0.0000000000000","TLE_LINE2":"2 52625  53.2148 276.6431 0001419  77.1800 204.0623 15.07179592  1309","COUNTRY_CODE":"US","RA_OF_ASC_NODE":"276.6431","REF_FRAME":"TEME","TIME_SYSTEM":"UTC","LAUNCH_DATE":"2022-05-14","GP_ID":"211506012","OBJECT_TYPE":"PAYLOAD","APOAPSIS":"545.808","INCLINATION":"53.2148","EPOCH":"2022-09-01T22:00:00.999936","PERIOD":"95.543","EPHEMERIS_TYPE":"0","CENTER_NAME":"EARTH","MEAN_MOTION":"15.07179592","MEAN_ANOMALY":"204.0623","NORAD_CAT_ID":"52625","SEMIMAJOR_AXIS":"6922.960","DECAY_DATE":null,"SITE":"AFETR","REV_AT_EPOCH":"130","TLE_LINE1":"1 52625U 22052AD  22244.91667824  .00035732  00000-0  23557-2 0  9992","ARG_OF_PERICENTER":"77.1800","OBJECT_NAME":"STARLINK-3988","MEAN_ELEMENT_THEORY":"SGP4","FILE":"3554009","PERIAPSIS":"543.843","MEAN_MOTION_DOT":"0.00035732","OBJECT_ID":"2022-052AD","ELEMENT_SET_NO":"999","RCS_SIZE":"LARGE","CLASSIFICATION_TYPE":"U","BSTAR":"0.00235570000000","ECCENTRICITY":"0.00014190"}];
